[{"OBJECT_NAME":"XIWANG-1 (HOPE-1)","OBJECT_ID":"2009-072B","EPOCH":"2026-03-09T21:54:41.953248","MEAN_MOTION":13.16437783,"ECCENTRICITY":0.00080951,"INCLINATION":100.3921,"RA_OF_ASC_NODE":24.3821,"ARG_OF_PERICENTER":99.0297,"MEAN_ANOMALY":261.1733,"EPHEMERIS_TYPE":0,"CLASSIFICATION_TYPE":"U","NORAD_CAT_ID":36122,"ELEMENT_SET_NO":999,"REV_AT_EPOCH":77994,"BSTAR":0.0011898647,"MEAN_MOTION_DOT":4.1e-6,"MEAN_MOTION_DDOT":0},{"OBJECT_NAME":"ONEWEB-0632","OBJECT_ID":"2023-043AD","EPOCH":"2026-03-09T14:39:03.369024","MEAN_MOTION":13.15547691,"ECCENTRICITY":0.0001427,"INCLINATION":87.894,"RA_OF_ASC_NODE":279.0973,"ARG_OF_PERICENTER":93.7391,"MEAN_ANOMALY":266.3903,"EPHEMERIS_TYPE":0,"CLASSIFICATION_TYPE":"U","NORAD_CAT_ID":56073,"ELEMENT_SET_NO":999,"REV_AT_EPOCH":14333,"BSTAR":-0.00044453,"MEAN_MOTION_DOT":-1.55e-6,"MEAN_MOTION_DDOT":0}]
